var class_oddity_1_1_models_1_1_payloads_1_1_payload_info =
[
    [ "ToString", "class_oddity_1_1_models_1_1_payloads_1_1_payload_info.html#a80ef69dcd8eadca3403b5a406489a317", null ],
    [ "ApoapsisKilometers", "class_oddity_1_1_models_1_1_payloads_1_1_payload_info.html#a476650933c1f9fe08cbecd571c7928df", null ],
    [ "ArgOfPericenter", "class_oddity_1_1_models_1_1_payloads_1_1_payload_info.html#a15b95e5cbe044f2f6d6d592c7ca8a5b7", null ],
    [ "Customers", "class_oddity_1_1_models_1_1_payloads_1_1_payload_info.html#a67825231aa268256268a5f1f7be62ffa", null ],
    [ "Dragon", "class_oddity_1_1_models_1_1_payloads_1_1_payload_info.html#aad1af164acb4c278243579f1f0c99694", null ],
    [ "Eccentricity", "class_oddity_1_1_models_1_1_payloads_1_1_payload_info.html#a8c94e495a661cfef5fdaa62b32836549", null ],
    [ "Epoch", "class_oddity_1_1_models_1_1_payloads_1_1_payload_info.html#a3a5895719da83c119fc324950782236d", null ],
    [ "Id", "class_oddity_1_1_models_1_1_payloads_1_1_payload_info.html#a12f61d3cacfeec5862474e0fc65d78d1", null ],
    [ "InclinationDegrees", "class_oddity_1_1_models_1_1_payloads_1_1_payload_info.html#afb92b3c9d240fed9d95f472585b3c09c", null ],
    [ "Launch", "class_oddity_1_1_models_1_1_payloads_1_1_payload_info.html#aea19b75b63b1ddea8e986862c08c356d", null ],
    [ "LaunchId", "class_oddity_1_1_models_1_1_payloads_1_1_payload_info.html#acfdbe15588fc8ef37a83237e1b1c0b7a", null ],
    [ "LifespanYears", "class_oddity_1_1_models_1_1_payloads_1_1_payload_info.html#ade8ad97e710db720a7dd565ec4ec0598", null ],
    [ "Longitude", "class_oddity_1_1_models_1_1_payloads_1_1_payload_info.html#a9797a9ce0adff5f876365bd4de538116", null ],
    [ "Manufacturers", "class_oddity_1_1_models_1_1_payloads_1_1_payload_info.html#a186b52fbc5ce3e42c34ecc28fc6fe803", null ],
    [ "MassKilograms", "class_oddity_1_1_models_1_1_payloads_1_1_payload_info.html#a664c2a3ec4316069aee551f902dc3b19", null ],
    [ "MassPounds", "class_oddity_1_1_models_1_1_payloads_1_1_payload_info.html#a6cdae16f0edc8d716b2bff88e3ac590b", null ],
    [ "MeanAnomaly", "class_oddity_1_1_models_1_1_payloads_1_1_payload_info.html#ac77060af59fe402937b827fc0f05115e", null ],
    [ "MeanMotion", "class_oddity_1_1_models_1_1_payloads_1_1_payload_info.html#a9258b9b102ab4a2cff87397bd1c16219", null ],
    [ "Name", "class_oddity_1_1_models_1_1_payloads_1_1_payload_info.html#a4765625102277ecd675ecfe063689181", null ],
    [ "Nationalities", "class_oddity_1_1_models_1_1_payloads_1_1_payload_info.html#aacb27282793bdc313761e4a1ca665fbe", null ],
    [ "NoradIds", "class_oddity_1_1_models_1_1_payloads_1_1_payload_info.html#a7f5bd6f3e6f1bfd047ebe7ec07574412", null ],
    [ "Orbit", "class_oddity_1_1_models_1_1_payloads_1_1_payload_info.html#ae5736d56c6726923c9aec25688b4bac7", null ],
    [ "PeriapsisKilometers", "class_oddity_1_1_models_1_1_payloads_1_1_payload_info.html#a63cfbfb49dab90b75983f122d5b052d8", null ],
    [ "PeriodMinutes", "class_oddity_1_1_models_1_1_payloads_1_1_payload_info.html#a057381fe7c7b0dc75f314d5ceb750f8f", null ],
    [ "Raan", "class_oddity_1_1_models_1_1_payloads_1_1_payload_info.html#ae2a365d1fb0796ece8e885fe4764402a", null ],
    [ "ReferenceSystem", "class_oddity_1_1_models_1_1_payloads_1_1_payload_info.html#a09c7e42010aff0da0d99767995997111", null ],
    [ "Regime", "class_oddity_1_1_models_1_1_payloads_1_1_payload_info.html#ae3e7cc06640202749cb501da40e4976d", null ],
    [ "Reused", "class_oddity_1_1_models_1_1_payloads_1_1_payload_info.html#ae17f739180000a76942413f76d1e7ae9", null ],
    [ "SemiMajorAxisKilometers", "class_oddity_1_1_models_1_1_payloads_1_1_payload_info.html#a6548ca42efebba5b1b06cf3b77840865", null ],
    [ "Type", "class_oddity_1_1_models_1_1_payloads_1_1_payload_info.html#a79c60559cd9dfa41ed50adb1de20472c", null ]
];